COMMENT,ORIGINATOR,NORAD_CAT_ID,OBJECT_NAME,OBJECT_TYPE,CLASSIFICATION_TYPE,INTLDES,EPOCH,EPOCH_MICROSECONDS,MEAN_MOTION,ECCENTRICITY,INCLINATION,RA_OF_ASC_NODE,ARG_OF_PERICENTER,MEAN_ANOMALY,EPHEMERIS_TYPE,ELEMENT_SET_NO,REV_AT_EPOCH,BSTAR,MEAN_MOTION_DOT,MEAN_MOTION_DDOT,FILE,TLE_LINE0,TLE_LINE1,TLE_LINE2,OBJECT_ID,OBJECT_NUMBER,SEMIMAJOR_AXIS,PERIOD,APOGEE,PERIGEE,DECAYED
"GENERATED VIA SPACETRACK.ORG API","18 SPCS","55091","SPACEBEE-164","PAYLOAD","U","23001CL","2023-10-18 09:57:44","778240","15.25034415","0.0011923","97.4605","350.6546","293.1144","66.8837","0","999","4384","0.0010329","0.00025844","0","4040119","0 SPACEBEE-164","1 55091U 23001CL  23291.41510160  .00025844  00000-0  10329-2 0  9991","2 55091  97.4605 350.6546 0011923 293.1144  66.8837 15.25034415 43849","2023-001CL","55091","6868.819","94.424","498.874","482.494","0"
"GENERATED VIA SPACETRACK.ORG API","18 SPCS","55091","SPACEBEE-164","PAYLOAD","U","23001CL","2023-10-18 14:41:11","964192","15.25046677","0.0011945","97.4604","350.8507","292.3548","67.6423","0","999","4387","0.0011385","0.00028514","0","4040456","0 SPACEBEE-164","1 55091U 23001CL  23291.61194403  .00028514  00000-0  11385-2 0  9991","2 55091  97.4604 350.8507 0011945 292.3548  67.6423 15.25046677 43876","2023-001CL","55091","6868.782","94.423","498.852","482.443","0"
"GENERATED VIA SPACETRACK.ORG API","18 SPCS","55091","SPACEBEE-164","PAYLOAD","U","23001CL","2023-10-19 03:17:03","659424","15.25084683","0.0011963","97.4605","351.374","290.5023","69.4931","0","999","4395","0.0014812","0.00037204","0","4041576","0 SPACEBEE-164","1 55091U 23001CL  23292.13684791  .00037204  00000-0  14812-2 0  9997","2 55091  97.4605 351.3740 0011963 290.5023  69.4931 15.25084683 43952","2023-001CL","55091","6868.668","94.421","498.750","482.316","0"
"GENERATED VIA SPACETRACK.ORG API","18 SPCS","55091","SPACEBEE-164","PAYLOAD","U","23001CL","2023-10-19 03:17:03","659424","15.25084683","0.0011963","97.4605","351.374","290.5023","69.4931","0","999","4395","0.0014812","0.00037204","0","4042363","0 SPACEBEE-164","1 55091U 23001CL  23292.13684791  .00037204  00000-0  14812-2 0  9997","2 55091  97.4605 351.3740 0011963 290.5023  69.4931 15.25084683 43952","2023-001CL","55091","6868.668","94.421","498.750","482.316","0"
"GENERATED VIA SPACETRACK.ORG API","18 SPCS","55091","SPACEBEE-164","PAYLOAD","U","23001CL","2023-10-20 02:54:15","139584","15.25154811","0.0011904","97.4605","352.3547","286.1476","73.8451","0","999","4410","0.0015364","0.00038681","0","4044291","0 SPACEBEE-164","1 55091U 23001CL  23293.12100856  .00038681  00000-0  15364-2 0  9995","2 55091  97.4605 352.3547 0011904 286.1476  73.8451 15.25154811 44101","2023-001CL","55091","6868.458","94.417","498.499","482.146","0"
"GENERATED VIA SPACETRACK.ORG API","18 SPCS","55091","SPACEBEE-164","PAYLOAD","U","23001CL","2023-10-21 02:31:23","104128","15.25211286","0.0011839","97.4606","353.3353","282.4321","77.5592","0","999","4425","0.0012447","0.00031345","0","4045124","0 SPACEBEE-164","1 55091U 23001CL  23294.10512852  .00031345  00000-0  12447-2 0  9996","2 55091  97.4606 353.3353 0011839 282.4321  77.5592 15.25211286 44256","2023-001CL","55091","6868.288","94.413","498.284","482.022","0"
"GENERATED VIA SPACETRACK.ORG API","18 SPCS","55091","SPACEBEE-164","PAYLOAD","U","23001CL","2023-10-21 02:31:23","104128","15.25211286","0.0011839","97.4606","353.3353","282.4321","77.5592","0","999","4425","0.0012447","0.00031345","0","4046008","0 SPACEBEE-164","1 55091U 23001CL  23294.10512852  .00031345  00000-0  12447-2 0  9996","2 55091  97.4606 353.3353 0011839 282.4321  77.5592 15.25211286 44256","2023-001CL","55091","6868.288","94.413","498.284","482.022","0"
"GENERATED VIA SPACETRACK.ORG API","18 SPCS","55091","SPACEBEE-164","PAYLOAD","U","23001CL","2023-10-21 21:25:02","764704","15.25262436","0.0011795","97.4615","354.1209","279.2713","80.7191","0","999","4437","0.0010027","0.00025255","0","4046563","0 SPACEBEE-164","1 55091U 23001CL  23294.89239311  .00025255  00000-0  10027-2 0  9993","2 55091  97.4615 354.1209 0011795 279.2713  80.7191 15.25262436 44372","2023-001CL","55091","6868.135","94.410","498.100","481.899","0"
"GENERATED VIA SPACETRACK.ORG API","18 SPCS","55091","SPACEBEE-164","PAYLOAD","U","23001CL","2023-10-22 03:42:55","494144","15.25279138","0.0011852","97.4613","354.3822","278.4675","81.5219","0","999","4441","0.00094821","0.00023886","0","4047137","0 SPACEBEE-164","1 55091U 23001CL  23295.15480896  .00023886  00000-0  94821-3 0  9992","2 55091  97.4613 354.3822 0011852 278.4675  81.5219 15.25279138 44417","2023-001CL","55091","6868.084","94.409","498.089","481.809","0"
"GENERATED VIA SPACETRACK.ORG API","18 SPCS","55091","SPACEBEE-164","PAYLOAD","U","23001CL","2023-10-22 10:00:47","979072","15.25293851","0.0011764","97.4611","354.6438","277.4443","82.5458","0","999","4445","0.00084571","0.00021298","0","4047923","0 SPACEBEE-164","1 55091U 23001CL  23295.41722198  .00021298  00000-0  84571-3 0  9991","2 55091  97.4611 354.6438 0011764 277.4443  82.5458 15.25293851 44453","2023-001CL","55091","6868.040","94.408","497.985","481.826","0"
"GENERATED VIA SPACETRACK.ORG API","18 SPCS","55091","SPACEBEE-164","PAYLOAD","U","23001CL","2023-10-22 22:36:32","281920","15.25327311","0.0011888","97.4606","355.1667","275.4476","84.5405","0","999","4453","0.0010917","0.00027566","0","4048538","0 SPACEBEE-164","1 55091U 23001CL  23295.94204030  .00027566  00000-0  10917-2 0  9995","2 55091  97.4606 355.1667 0011888 275.4476  84.5405 15.25327311 44530","2023-001CL","55091","6867.940","94.406","497.969","481.640","0"
"GENERATED VIA SPACETRACK.ORG API","18 SPCS","55091","SPACEBEE-164","PAYLOAD","U","23001CL","2023-10-23 01:45:28","247040","15.2533488","0.0011894","97.4606","355.2975","274.9717","85.0163","0","999","4455","0.0011158","0.00028184","0","4049019","0 SPACEBEE-164","1 55091U 23001CL  23296.07324360  .00028184  00000-0  11158-2 0  9994","2 55091  97.4606 355.2975 0011894 274.9717  85.0163 15.25334880 44550","2023-001CL","55091","6867.917","94.405","497.951","481.613","0"
"GENERATED VIA SPACETRACK.ORG API","18 SPCS","55091","SPACEBEE-164","PAYLOAD","U","23001CL","2023-10-23 01:45:28","247040","15.2533488","0.0011894","97.4606","355.2975","274.9717","85.0163","0","999","4455","0.0011158","0.00028184","0","4050204","0 SPACEBEE-164","1 55091U 23001CL  23296.07324360  .00028184  00000-0  11158-2 0  9994","2 55091  97.4606 355.2975 0011894 274.9717  85.0163 15.25334880 44550","2023-001CL","55091","6867.917","94.405","497.951","481.613","0"
"GENERATED VIA SPACETRACK.ORG API","18 SPCS","55091","SPACEBEE-164","PAYLOAD","U","23001CL","2023-10-24 10:49:13","119456","15.25394765","0.001191","97.461","356.671","269.7041","90.2832","0","999","4476","0.00085164","0.00021514","0","4051575","0 SPACEBEE-164","1 55091U 23001CL  23297.45084629  .00021514  00000-0  85164-3 0  9997","2 55091  97.4610 356.6710 0011910 269.7041  90.2832 15.25394765 44760","2023-001CL","55091","6867.737","94.402","497.782","481.423","0"
"GENERATED VIA SPACETRACK.ORG API","18 SPCS","55091","SPACEBEE-164","PAYLOAD","U","23001CL","2023-10-25 04:08:17","579616","15.25427615","0.0011868","97.4612","357.3907","266.9636","93.0244","0","999","4487","0.0008421","0.00021293","0","4052988","0 SPACEBEE-164","1 55091U 23001CL  23298.17242569  .00021293  00000-0  84210-3 0  9991","2 55091  97.4612 357.3907 0011868 266.9636  93.0244 15.25427615 44870","2023-001CL","55091","6867.639","94.400","497.654","481.353","0"
"GENERATED VIA SPACETRACK.ORG API","18 SPCS","55091","SPACEBEE-164","PAYLOAD","U","23001CL","2023-10-26 03:45:10","663488","15.25473672","0.0011859","97.4611","358.3717","263.156","96.8328","0","999","4502","0.0010034","0.00025434","0","4053524","0 SPACEBEE-164","1 55091U 23001CL  23299.15637342  .00025434  00000-0  10034-2 0  9990","2 55091  97.4611 358.3717 0011859 263.1560  96.8328 15.25473672 45020","2023-001CL","55091","6867.500","94.397","497.510","481.221","0"
"GENERATED VIA SPACETRACK.ORG API","18 SPCS","55091","SPACEBEE-164","PAYLOAD","U","23001CL","2023-10-26 10:03:00","345600","15.25487031","0.0011886","97.4609","358.6331","261.9722","98.0167","0","999","4506","0.0010191","0.00025845","0","4054082","0 SPACEBEE-164","1 55091U 23001CL  23299.41875400  .00025845  00000-0  10191-2 0  9998","2 55091  97.4609 358.6331 0011886 261.9722  98.0167 15.25487031 45061","2023-001CL","55091","6867.460","94.396","497.488","481.163","0"
"GENERATED VIA SPACETRACK.ORG API","18 SPCS","55091","SPACEBEE-164","PAYLOAD","U","23001CL","2023-10-26 17:55:17","187744","15.25504574","0.0011888","97.4609","358.9604","260.5802","99.4092","0","999","4511","0.0010256","0.00026025","0","4054421","0 SPACEBEE-164","1 55091U 23001CL  23299.74672671  .00026025  00000-0  10256-2 0  9992","2 55091  97.4609 358.9604 0011888 260.5802  99.4092 15.25504574 45113","2023-001CL","55091","6867.408","94.395","497.437","481.109","0"
"GENERATED VIA SPACETRACK.ORG API","18 SPCS","55091","SPACEBEE-164","PAYLOAD","U","23001CL","2023-10-27 03:22:00","789024","15.2553229","0.0011917","97.4607","359.353","259.3454","100.6442","0","999","4517","0.001162","0.00029534","0","4055718","0 SPACEBEE-164","1 55091U 23001CL  23300.14028691  .00029534  00000-0  11620-2 0  9990","2 55091  97.4607 359.3530 0011917 259.3454 100.6442 15.25532290 45172","2023-001CL","55091","6867.325","94.393","497.373","481.006","0"
"GENERATED VIA SPACETRACK.ORG API","18 SPCS","55091","SPACEBEE-164","PAYLOAD","U","23001CL","2023-10-27 03:22:00","789024","15.2553229","0.0011917","97.4607","359.353","259.3454","100.6442","0","999","4517","0.001162","0.00029534","0","4055819","0 SPACEBEE-164","1 55091U 23001CL  23300.14028691  .00029534  00000-0  11620-2 0  9990","2 55091  97.4607 359.3530 0011917 259.3454 100.6442 15.25532290 45172","2023-001CL","55091","6867.325","94.393","497.373","481.006","0"
